ATLANTIS                
1 42737U 98067MS  17198.39508301  .00043453  00000-0  59793-3 0  9993
2 42737  51.6388 247.1026 0009681  47.0561 313.1242 15.56770686  7997
LEMUR-2-ANGELA          
1 42752U 17019B   17198.41526687  .00002040  00000-0  87712-4 0  9998
2 42752  51.6424 255.3644 0011403  90.1887 270.0399 15.27474595  5919
LEMUR-2-JENNYBARNA      
1 42753U 17019C   17198.54532443  .00003276  00000-0  13268-3 0  9996
2 42753  51.6418 254.7327 0011319  90.1104 270.1173 15.27535304  5885
LEMUR-2-ROBMOORE        
1 42754U 17019D   17198.54781790  .00002014  00000-0  86921-4 0  9994
2 42754  51.6424 254.7483 0011380  93.1366 267.0915 15.27406203  5915
LEMUR-2-SPIROVISION     
1 42755U 17019E   17198.41641916  .00003251  00000-0  13211-3 0  9991
2 42755  51.6417 255.3705 0011334  92.4129 267.8148 15.27444274  5781
UCLSAT                  
1 42765U 17036A   17198.15726882  .00002009  00000-0  94358-4 0  9990
2 42765  97.4481 257.6446 0012644 162.3993 197.7683 15.20709969  4365
LITUANICASAT-2          
1 42768U 17036D   17198.57052454  .00004646  00000-0  22076-3 0  9992
2 42768  97.4477 258.0097 0017387 151.9441 208.2735 15.19576933  3716
INFLATESAIL             
1 42770U 17036F   17198.59257709  .00370905  00000-0  13571-1 0  9999
2 42770  97.4493 258.1305 0016701 186.7958 173.3056 15.26311111  3652
LEMUR-2-SHAINAJOHL      
1 42771U 17036G   17198.56777508  .00004050  00000-0  19202-3 0  9995
2 42771  97.4479 258.0142 0016436 150.9124 209.3030 15.19746723  3653
LEMUR-2-XUENITERENCE    
1 42772U 17036H   17198.56686428  .00003951  00000-0  18711-3 0  9999
2 42772  97.4478 258.0150 0016168 150.3382 209.8774 15.19801443  3655
LEMUR-2-LUCYBRYCE       
1 42773U 17036J   17198.56608676  .00004129  00000-0  19516-3 0  9991
2 42773  97.4479 258.0163 0015950 150.3492 209.8650 15.19850689  3650
LEMUR-2-KUNGFOO         
1 42774U 17036K   17198.56565263  .00002912  00000-0  13853-3 0  9992
2 42774  97.4481 258.0179 0015824 150.3415 209.8720 15.19873344  3646
AALTO-1                 
1 42775U 17036L   17198.56396338  .00001364  00000-0  66427-4 0  9994
2 42775  97.4482 258.0199 0015359 149.1525 211.0616 15.19959156  3657
URSA MAJOR              
1 42776U 17036M   17198.56337523  .00001397  00000-0  67892-4 0  9999
2 42776  97.4484 258.0215 0015238 149.4637 210.7488 15.19995901  3653
LEMUR-2-LYNSEY-SYMO     
1 42779U 17036Q   17198.55631936  .00003159  00000-0  14758-3 0  9996
2 42779  97.4483 258.0310 0013681 159.5611 200.6174 15.20458776  3639
LEMUR-2-LISASAURUS      
1 42780U 17036R   17198.55583872  .00002945  00000-0  13773-3 0  9991
2 42780  97.4480 258.0305 0013542 159.3823 200.7961 15.20482861  3649
LEMUR-2-SAM-AMELIA      
1 42781U 17036S   17198.55558600  .00004142  00000-0  19223-3 0  9990
2 42781  97.4479 258.0304 0013510 159.5228 200.6552 15.20508499  3633
LEMUR-2-MCPEAKE         
1 42782U 17036T   17198.42351660  .00004099  00000-0  19012-3 0  9991
2 42782  97.4481 257.9018 0013364 159.7931 200.3836 15.20535249  3610
RED DIAMOND             
1 42783U 17036U   17198.55452459  .00001562  00000-0  74422-4 0  9993
2 42783  97.4482 258.0320 0013297 161.0727 199.1005 15.20550848  3642
PEGASUS                 
1 42784U 17036V   17198.55410644  .00001861  00000-0  87986-4 0  9995
2 42784  97.4483 258.0330 0013222 161.2278 198.9447 15.20581889  3642
GREEN DIAMOND           
1 42785U 17036W   17198.55391590  .00001665  00000-0  79002-4 0  9996
2 42785  97.4484 258.0335 0013151 161.1039 199.0687 15.20589592  3719
BLUE DIAMOND            
1 42786U 17036X   17198.42154353  .00001701  00000-0  80541-4 0  9998
2 42786  97.4483 257.9042 0012951 161.8044 198.3657 15.20637220  3690
SUCHAI                  
1 42787U 17036Y   17198.55260920  .00003451  00000-0  15991-3 0  9991
2 42787  97.4480 258.0345 0012956 161.4225 198.7485 15.20692036  3484
NUDTSAT                 
1 42788U 17036Z   17198.55273506  .00002594  00000-0  12105-3 0  9997
2 42788  97.4480 258.0343 0012919 161.3232 198.8480 15.20672354  3712
SKCUBE                  
1 42789U 17036AA  17198.55204097  .00002494  00000-0  11636-3 0  9994
2 42789  97.4479 258.0350 0012731 161.2107 198.9601 15.20714187  3639
VZLUSAT-1               
1 42790U 17036AB  17198.55095582  .00002888  00000-0  13398-3 0  9997
2 42790  97.4477 258.0353 0012468 161.4964 198.6727 15.20787515  3633
ROBUSTA-1B              
1 42792U 17036AD  17198.55011171  .00002549  00000-0  11848-3 0  9993
2 42792  97.4477 258.0364 0012256 162.1858 197.9810 15.20835544  3644
CICERO 6                
1 42793U 17036AE  17198.54674603  .00001477  00000-0  69599-4 0  9994
2 42793  97.4478 258.0407 0011240 162.3170 197.8459 15.21035947  3711
D-SAT                   
1 42794U 17036AF  17198.61130071  .00001298  00000-0  61425-4 0  9990
2 42794  97.4476 258.1065 0010488 158.8718 201.2953 15.21108701  3642
1998-067MU              
1 42820U 98067MU  17198.44580419  .00020143  00000-0  30015-3 0  9999
2 42820  51.6394 247.4397 0004012   5.7969 354.3068 15.55078501  1574
1998-067MV              
1 42821U 98067MV  17198.51028554  .00018233  00000-0  27277-3 0  9998
2 42821  51.6396 247.1205 0004074   8.1218 351.9838 15.55042797  1569
1998-067MW              
1 42822U 98067MW  17198.51047764  .00018502  00000-0  27697-3 0  9998
2 42822  51.6393 247.1220 0004096   9.9615 350.1457 15.55015328  1577
1998-067MX              
1 42823U 98067MX  17198.44652787  .00019827  00000-0  29653-3 0  9993
2 42823  51.6397 247.4457 0007819  21.4291 338.7026 15.54967390  1558
1998-067MY              
1 42824U 98067MY  17198.44685679  .00019776  00000-0  29636-3 0  9994
2 42824  51.6397 247.4480 0007616  22.5846 337.5479 15.54915395  1533
